{"type": "FeatureCollection", "features": [ {"type": "Feature", "properties": {"norad_id": 35469, "name": "COSMOS 2251 DEB", "group": "cosmos-2251-debris", "lat": -67.62251216600357, "lon": -31.222632611929107, "alt_km": 759.2570349420284, "timestamp": "2025-12-18T13:51:50.082236+00:00", "meta": {"OBJECT_NAME": "COSMOS 2251 DEB", "OBJECT_ID": "1993-036ALP", "EPOCH": "2025-12-17T10:03:24.635232", "MEAN_MOTION": 14.49823782, "ECCENTRICITY": 0.00766993, "INCLINATION": 74.0168, "RA_OF_ASC_NODE": 15.0739, "ARG_OF_PERICENTER": 169.3141, "MEAN_ANOMALY": 190.9672, "EPHEMERIS_TYPE": 0, "CLASSIFICATION_TYPE": "U", "NORAD_CAT_ID": 35469, "ELEMENT_SET_NO": 999, "REV_AT_EPOCH": 88179, "BSTAR": 8.4078669e-05, "MEAN_MOTION_DOT": 3.07e-06, "MEAN_MOTION_DDOT": 0}, "tle": {"line1": "1 35469U 93036ALP 25351.41903513  .00000307  00000+0  84079-4 0  9991", "line2": "2 35469  74.0168  15.0739 0076699 169.3141 190.9672 14.49823782881797"}}, "geometry": {"type": "Point", "coordinates": [-31.222632611929107, -67.62251216600357]}}, {"type": "Feature", "properties": {"norad_id": 35475, "name": "COSMOS 2251 DEB", "group": "cosmos-2251-debris", "lat": -17.021322432360016, "lon": -20.666913820637486, "alt_km": 653.5632478635334, "timestamp": "2025-12-18T13:51:50.082246+00:00", "meta": {"OBJECT_NAME": "COSMOS 2251 DEB", "OBJECT_ID": "1993-036ALV", "EPOCH": "2025-12-17T04:17:46.417344", "MEAN_MOTION": 14.69825096, "ECCENTRICITY": 0.00204153, "INCLINATION": 74.0209, "RA_OF_ASC_NODE": 157.0129, "ARG_OF_PERICENTER": 229.8269, "MEAN_ANOMALY": 130.1115, "EPHEMERIS_TYPE": 0, "CLASSIFICATION_TYPE": "U", "NORAD_CAT_ID": 35475, "ELEMENT_SET_NO": 999, "REV_AT_EPOCH": 65682, "BSTAR": 0.0014653547, "MEAN_MOTION_DOT": 8.76e-05, "MEAN_MOTION_DDOT": 0}, "tle": {"line1": "1 35475U 93036ALV 25351.17900946  .00008760  00000+0  14654-2 0  9999", "line2": "2 35475  74.0209 157.0129 0020415 229.8269 130.1115 14.69825096656822"}}, "geometry": {"type": "Point", "coordinates": [-20.666913820637486, -17.021322432360016]}}, {"type": "Feature", "properties": {"norad_id": 35476, "name": "COSMOS 2251 DEB", "group": "cosmos-2251-debris", "lat": 10.601713641451, "lon": -133.62976878341738, "alt_km": 653.4734860758144, "timestamp": "2025-12-18T13:51:50.082256+00:00", "meta": {"OBJECT_NAME": "COSMOS 2251 DEB", "OBJECT_ID": "1993-036ALW", "EPOCH": "2025-12-18T05:14:38.528736", "MEAN_MOTION": 14.75789174, "ECCENTRICITY": 0.00179708, "INCLINATION": 73.9786, "RA_OF_ASC_NODE": 50.1582, "ARG_OF_PERICENTER": 29.5382, "MEAN_ANOMALY": 31.8013, "EPHEMERIS_TYPE": 0, "CLASSIFICATION_TYPE": "U", "NORAD_CAT_ID": 35476, "ELEMENT_SET_NO": 999, "REV_AT_EPOCH": 87968, "BSTAR": 0.0012515049, "MEAN_MOTION_DOT": 8.576e-05, "MEAN_MOTION_DDOT": 0}, "tle": {"line1": "1 35476U 93036ALW 25352.21850149  .00008576  00000+0  12515-2 0  9994", "line2": "2 35476  73.9786  50.1582 0017970  29.5382  31.8013 14.75789174879688"}}, "geometry": {"type": "Point", "coordinates": [-133.62976878341738, 10.601713641451]}}, {"type": "Feature", "properties": {"norad_id": 35580, "name": "COSMOS 2251 DEB", "group": "cosmos-2251-debris", "lat": 40.199979667196075, "lon": -25.329709087699875, "alt_km": 776.30563706267, "timestamp": "2025-12-18T13:51:50.082266+00:00", "meta": {"OBJECT_NAME": "COSMOS 2251 DEB", "OBJECT_ID": "1993-036ALX", "EPOCH": "2025-12-17T18:06:35.144352", "MEAN_MOTION": 13.83894964, "ECCENTRICITY": 0.02810325, "INCLINATION": 73.9009, "RA_OF_ASC_NODE": 170.1954, "ARG_OF_PERICENTER": 174.439, "MEAN_ANOMALY": 185.9973, "EPHEMERIS_TYPE": 0, "CLASSIFICATION_TYPE": "U", "NORAD_CAT_ID": 35580, "ELEMENT_SET_NO": 999, "REV_AT_EPOCH": 62326, "BSTAR": 0.0016372529, "MEAN_MOTION_DOT": 2.442e-05, "MEAN_MOTION_DDOT": 0}, "tle": {"line1": "1 35580U 93036ALX 25351.75457343  .00002442  00000+0  16373-2 0  9999", "line2": "2 35580  73.9009 170.1954 0281032 174.4390 185.9973 13.83894964623268"}}, "geometry": {"type": "Point", "coordinates": [-25.329709087699875, 40.199979667196075]}}, {"type": "Feature", "properties": {"norad_id": 35583, "name": "COSMOS 2251 DEB", "group": "cosmos-2251-debris", "lat": -37.72030412966315, "lon": -170.33908878904157, "alt_km": 1071.1430473547762, "timestamp": "2025-12-18T13:51:50.082277+00:00", "meta": {"OBJECT_NAME": "COSMOS 2251 DEB", "OBJECT_ID": "1993-036AMA", "EPOCH": "2025-12-18T06:58:43.029120", "MEAN_MOTION": 13.55345124, "ECCENTRICITY": 0.0385225, "INCLINATION": 73.916, "RA_OF_ASC_NODE": 203.0196, "ARG_OF_PERICENTER": 226.35, "MEAN_ANOMALY": 130.5073, "EPHEMERIS_TYPE": 0, "CLASSIFICATION_TYPE": "U", "NORAD_CAT_ID": 35583, "ELEMENT_SET_NO": 999, "REV_AT_EPOCH": 82487, "BSTAR": 0.00067393273, "MEAN_MOTION_DOT": 7.28e-06, "MEAN_MOTION_DDOT": 0}, "tle": {"line1": "1 35583U 93036AMA 25352.29077580  .00000728  00000+0  67393-3 0  9997", "line2": "2 35583  73.9160 203.0196 0385225 226.3500 130.5073 13.55345124824877"}}, "geometry": {"type": "Point", "coordinates": [-170.33908878904157, -37.72030412966315]}}, {"type": "Feature", "properties": {"norad_id": 35585, "name": "COSMOS 2251 DEB", "group": "cosmos-2251-debris", "lat": -26.49143516904163, "lon": -29.571277321619423, "alt_km": 949.9932586139284, "timestamp": "2025-12-18T13:51:50.082287+00:00", "meta": {"OBJECT_NAME": "COSMOS 2251 DEB", "OBJECT_ID": "1993-036AMC", "EPOCH": "2025-12-17T08:39:54.158400", "MEAN_MOTION": 13.7526174, "ECCENTRICITY": 0.03105215, "INCLINATION": 73.9723, "RA_OF_ASC_NODE": 340.6956, "ARG_OF_PERICENTER": 252.0353, "MEAN_ANOMALY": 175.758, "EPHEMERIS_TYPE": 0, "CLASSIFICATION_TYPE": "U", "NORAD_CAT_ID": 35585, "ELEMENT_SET_NO": 999, "REV_AT_EPOCH": 64127, "BSTAR": 0.0008460608, "MEAN_MOTION_DOT": 1.128e-05, "MEAN_MOTION_DDOT": 0}, "tle": {"line1": "1 35585U 93036AMC 25351.36104350  .00001128  00000+0  84606-3 0  9993", "line2": "2 35585  73.9723 340.6956 0310521 252.0353 175.7580 13.75261740641273"}}, "geometry": {"type": "Point", "coordinates": [-29.571277321619423, -26.49143516904163]}}, {"type": "Feature", "properties": {"norad_id": 35586, "name": "COSMOS 2251 DEB", "group": "cosmos-2251-debris", "lat": 26.59470772409575, "lon": -58.626495663601055, "alt_km": 1286.3599195703882, "timestamp": "2025-12-18T13:51:50.082297+00:00", "meta": {"OBJECT_NAME": "COSMOS 2251 DEB", "OBJECT_ID": "1993-036AMD", "EPOCH": "2025-12-16T14:39:02.048832", "MEAN_MOTION": 13.52087602, "ECCENTRICITY": 0.04045249, "INCLINATION": 74.0205, "RA_OF_ASC_NODE": 296.2763, "ARG_OF_PERICENTER": 170.7772, "MEAN_ANOMALY": 8.2302, "EPHEMERIS_TYPE": 0, "CLASSIFICATION_TYPE": "U", "NORAD_CAT_ID": 35586, "ELEMENT_SET_NO": 999, "REV_AT_EPOCH": 60434, "BSTAR": 0.00026866274, "MEAN_MOTION_DOT": 2.76e-06, "MEAN_MOTION_DDOT": 0}, "tle": {"line1": "1 35586U 93036AMD 25350.61044038  .00000276  00000+0  26866-3 0  9994", "line2": "2 35586  74.0205 296.2763 0404524 170.7772   8.2302 13.52087602604348"}}, "geometry": {"type": "Point", "coordinates": [-58.626495663601055, 26.59470772409575]}}, {"type": "Feature", "properties": {"norad_id": 35587, "name": "COSMOS 2251 DEB", "group": "cosmos-2251-debris", "lat": -62.80490565801742, "lon": -99.00989236805057, "alt_km": 593.0673392146728, "timestamp": "2025-12-18T13:51:50.082308+00:00", "meta": {"OBJECT_NAME": "COSMOS 2251 DEB", "OBJECT_ID": "1993-036AME", "EPOCH": "2025-12-17T20:25:21.555552", "MEAN_MOTION": 14.7153897, "ECCENTRICITY": 0.01024691, "INCLINATION": 74.0054, "RA_OF_ASC_NODE": 48.4708, "ARG_OF_PERICENTER": 235.0321, "MEAN_ANOMALY": 124.1197, "EPHEMERIS_TYPE": 0, "CLASSIFICATION_TYPE": "U", "NORAD_CAT_ID": 35587, "ELEMENT_SET_NO": 999, "REV_AT_EPOCH": 66421, "BSTAR": 0.00020868501, "MEAN_MOTION_DOT": 1.37e-05, "MEAN_MOTION_DDOT": 0}, "tle": {"line1": "1 35587U 93036AME 25351.85094393  .00001370  00000+0  20869-3 0  9994", "line2": "2 35587  74.0054  48.4708 0102469 235.0321 124.1197 14.71538970664218"}}, "geometry": {"type": "Point", "coordinates": [-99.00989236805057, -62.80490565801742]}}, {"type": "Feature", "properties": {"norad_id": 35593, "name": "COSMOS 2251 DEB", "group": "cosmos-2251-debris", "lat": 43.5366077851374, "lon": 82.21402304335206, "alt_km": 866.9079178760448, "timestamp": "2025-12-18T13:51:50.082318+00:00", "meta": {"OBJECT_NAME": "COSMOS 2251 DEB", "OBJECT_ID": "1993-036AML", "EPOCH": "2025-12-16T02:16:58.534752", "MEAN_MOTION": 14.25610716, "ECCENTRICITY": 0.01051822, "INCLINATION": 74.086, "RA_OF_ASC_NODE": 282.4096, "ARG_OF_PERICENTER": 288.161, "MEAN_ANOMALY": 70.8107, "EPHEMERIS_TYPE": 0, "CLASSIFICATION_TYPE": "U", "NORAD_CAT_ID": 35593, "ELEMENT_SET_NO": 999, "REV_AT_EPOCH": 85113, "BSTAR": 0.00056549388, "MEAN_MOTION_DOT": 1.393e-05, "MEAN_MOTION_DDOT": 0}, "tle": {"line1": "1 35593U 93036AML 25350.09512193  .00001393  00000+0  56549-3 0  9998", "line2": "2 35593  74.0860 282.4096 0105182 288.1610  70.8107 14.25610716851130"}}, "geometry": {"type": "Point", "coordinates": [82.21402304335206, 43.5366077851374]}}, {"type": "Feature", "properties": {"norad_id": 35594, "name": "COSMOS 2251 DEB", "group": "cosmos-2251-debris", "lat": -48.396030941078756, "lon": 75.63114098899167, "alt_km": 614.9838548114685, "timestamp": "2025-12-18T13:51:50.082329+00:00", "meta": {"OBJECT_NAME": "COSMOS 2251 DEB", "OBJECT_ID": "1993-036AMM", "EPOCH": "2025-12-17T17:07:08.312160", "MEAN_MOTION": 14.88085261, "ECCENTRICITY": 0.00295539, "INCLINATION": 73.8085, "RA_OF_ASC_NODE": 96.479, "ARG_OF_PERICENTER": 207.6965, "MEAN_ANOMALY": 152.2642, "EPHEMERIS_TYPE": 0, "CLASSIFICATION_TYPE": "U", "NORAD_CAT_ID": 35594, "ELEMENT_SET_NO": 999, "REV_AT_EPOCH": 88259, "BSTAR": 0.0013790172, "MEAN_MOTION_DOT": 0.00012773, "MEAN_MOTION_DDOT": 0}, "tle": {"line1": "1 35594U 93036AMM 25351.71329065  .00012773  00000+0  13790-2 0  9997", "line2": "2 35594  73.8085  96.4790 0029553 207.6965 152.2642 14.88085261882590"}}, "geometry": {"type": "Point", "coordinates": [75.63114098899167, -48.396030941078756]}}]}